[{"OBJECT_NAME":"APRIZESAT 3","OBJECT_ID":"2009-041F","EPOCH":"2026-03-09T21:53:07.275264","MEAN_MOTION":14.95902996,"ECCENTRICITY":0.00628853,"INCLINATION":98.1904,"RA_OF_ASC_NODE":217.4844,"ARG_OF_PERICENTER":35.8471,"MEAN_ANOMALY":324.6944,"EPHEMERIS_TYPE":0,"CLASSIFICATION_TYPE":"U","NORAD_CAT_ID":35686,"ELEMENT_SET_NO":999,"REV_AT_EPOCH":90153,"BSTAR":0.00014818153,"MEAN_MOTION_DOT":1.656e-5,"MEAN_MOTION_DDOT":0},{"OBJECT_NAME":"STARLINK-4255","OBJECT_ID":"2022-076T","EPOCH":"2026-03-09T19:06:22.614048","MEAN_MOTION":15.08841248,"ECCENTRICITY":0.00016088,"INCLINATION":53.217,"RA_OF_ASC_NODE":93.6442,"ARG_OF_PERICENTER":73.3549,"MEAN_ANOMALY":286.7619,"EPHEMERIS_TYPE":0,"CLASSIFICATION_TYPE":"U","NORAD_CAT_ID":53003,"ELEMENT_SET_NO":999,"REV_AT_EPOCH":20286,"BSTAR":4.757932e-5,"MEAN_MOTION_DOT":4.69e-6,"MEAN_MOTION_DDOT":0}]
